LEMUR-2-ROUNDTRIPPER    
1 62711U 25009DG  26177.74165426  .00008263  00000+0  60299-3 0  9998
2 62711  97.7249 260.4080 0005545 108.1991 251.9838 15.03939479 79063
LEMUR-2-MYNAMEISJEFF    
1 62712U 25009DH  26177.74004892  .00007836  00000+0  57222-3 0  9995
2 62712  97.7293 260.7932 0003965 134.1431 226.0121 15.03936471 79061
LEMUR-2-LEIA-PHILIP     
1 63246U 25052AN  26177.69282330  .00001220  00000+0  11007-3 0  9997
2 63246  97.6820  69.4835 0003690 178.1949 181.9287 14.97336142 70099
LEMUR-2-LIA-MARTIN      
1 63248U 25052AQ  26177.69467466  .00004609  00000+0  39648-3 0  9999
2 63248  97.6876  69.9742 0003810 140.1436 220.0066 14.97869805 70107
LEMUR-2-DELOITTE-1      
1 63259U 25052BB  26177.67230582  .00003218  00000+0  27978-3 0  9994
2 63259  97.6926  70.2830 0003153  76.8676 283.2898 14.97668462 70110
LEMUR-2-EMERSONROSE     
1 63261U 25052BD  26177.70492362  .00004166  00000+0  34736-3 0  9990
2 63261  97.6879  70.8900 0002054  77.9253 282.2200 14.99143154 70165
LEMUR-2-MARACHE-FRAN    
1 63262U 25052BE  26176.94000321  .00005246  00000+0  42451-3 0  9999
2 63262  97.6926  70.4715 0004565 347.4009  12.7100 15.00173475 70079
LEMUR-2-THEFALCONER     
1 63264U 25052BG  26177.70009726  .00003728  00000+0  32522-3 0  9995
2 63264  97.6850  69.9192 0001542  16.3648 343.7623 14.97442412 70119
LEMUR-2-UNTITLED-SC     
1 63351U 25061A   26177.21240887  .00004078  00000+0  23053-3 0  9991
2 63351  97.5637 152.5085 0017309 230.4277 129.5426 15.13531866 68954
LEMUR-2-ESPERANZA       
1 63352U 25061B   26177.65175625  .00003275  00000+0  18547-3 0  9997
2 63352  97.5641 153.0402 0016944 227.9658 132.0132 15.13625973 69022
LEMUR-2-KREMPEL-BRO2    
1 63353U 25061C   26177.74209039  .00003975  00000+0  22141-3 0  9997
2 63353  97.5688 153.6756 0018049 219.7361 140.2549 15.14065520 69053
LEMUR-2-THERMORAPTOR    
1 63354U 25061D   26177.45930985  .00003552  00000+0  19786-3 0  9999
2 63354  97.5695 153.4720 0017758 219.4856 140.5083 15.14144668 69016
LEMUR-2-NEUROSPICY      
1 63355U 25061E   26177.49635622  .00003716  00000+0  20635-3 0  9991
2 63355  97.5620 153.1274 0015532 222.7299 137.2726 15.14259614 69028
LEMUR-2-TILLINFINITY    
1 63356U 25061F   26177.66014043  .00003611  00000+0  19722-3 0  9998
2 63356  97.5605 153.5875 0017067 209.5455 150.4814 15.14847160 69074
LEMUR-2-KREMPEL-BRO1    
1 63357U 25061G   26177.43663450  .00003775  00000+0  20707-3 0  9992
2 63357  97.5607 153.2787 0017663 212.0024 148.0136 15.14651002 69033
LEMUR-2-LANGER2SPACE    
1 63358U 25061H   26177.46498845  .00003775  00000+0  20902-3 0  9997
2 63358  97.5612 153.1172 0015461 220.8781 139.1292 15.14347612 69020
LEMUR-2-BALTO           
1 63395U 25052BH  26177.65843373  .00006037  00000+0  48749-3 0  9992
2 63395  97.6923  71.1573 0006598  32.7587 327.4044 15.00186418 70182
LEMUR-2-KRISH           
1 64561U 25135AK  26177.57066704  .00004860  00000+0  43524-3 0  9994
2 64561  97.7747 292.3826 0001120 101.0260 259.1087 14.96283594 55329
LEMUR-2-HUBBLE-4        
1 64565U 25135AP  26176.24464968  .00001390  00000+0  13793-3 0  9995
2 64565  97.7646 290.0421 0002848 296.9282  63.1646 14.93362478 55075
LEMUR-2-SEJONG-2        
1 64586U 25135BL  26177.73132256  .00005125  00000+0  45303-3 0  9997
2 64586  97.7693 292.6864 0002818 301.4087  58.6859 14.96769348 55379
LEMUR-2-HUBBLE-5        
1 64840U 25135BT  26177.60010821  .00001904  00000+0  18324-3 0  9993
2 64840  97.7725 292.0415 0004302 318.1203  41.9687 14.94163036 55317
LEMUR-2-KARENDARRELL    
1 64841U 25135BU  26177.58968683  .00008607  00000+0  69143-3 0  9991
2 64841  97.7681 293.7814 0010500 166.6421 193.5082 15.00241970 55422
LEMUR-2-LUCILLE-ROSE    
1 65403U 25135BV  26177.29638441  .00007987  00000+0  64143-3 0  9995
2 65403  97.7748 293.5183 0012236 249.5106 110.4804 15.00260284 50005
LEMUR-2-AFFIE-WAUWIE    
1 66295U 25248C   26177.67056752  .00022909  00000+0  84292-3 0  9999
2 66295  45.3937  63.5971 0007709 149.2516 210.8826 15.27531092 36048
LEMUR-2-DEANANDMAEVE    
1 66678U 25276N   26177.72991576  .00006604  00000+0  31107-3 0  9994
2 66678  97.4217 251.0473 0004803 339.5015  20.6026 15.19843173 31864
LEMUR-2-STAS-GORBUK     
1 66686U 25276W   26177.68082142  .00006050  00000+0  28833-3 0  9995
2 66686  97.4249 251.0532 0004112 340.4981  19.6096 15.19474149 31857
LEMUR-2-TEODOR          
1 66768U 25276DG  26177.71997463  .00005568  00000+0  25310-3 0  9991
2 66768  97.4155 251.3401 0002383 107.2798 252.8699 15.21147471 31897
LEMUR-2-LAILA           
1 66776U 25276DQ  26177.69250153  .00006194  00000+0  27936-3 0  9997
2 66776  97.4178 251.4397 0002674 122.2435 237.9060 15.21370052 31893
LEMUR-2-CELIJO-SB-PK    
1 66781U 25276DW  26177.70911861  .00006207  00000+0  50213-3 0  9994
2 66781  97.5234 248.1738 0008158 109.6648 250.5457 15.00085304 24054
LEMUR-2-FINNIAN         
1 66782U 25276DX  26177.15007896  .00004553  00000+0  36599-3 0  9991
2 66782  97.5321 247.8587 0008626  63.2247 296.9859 15.00460441 21348
